FLOCK 4G-7              
1 62624U 25009R   26068.79996108  .00011422  00000+0  43168-3 0  9991
2 62624  97.3984 150.8270 0001396 336.9783  23.1393 15.27141471 63725
STARLINK-33978          
1 63832U 25092AE  26068.34448351  .00024580  00000+0  89975-3 0  9993
2 63832  43.0046 174.3492 0004886 149.0679 211.0462 15.27573000 48618
